IRIDIUM 159             
1 43578U 18061K   24297.94113924 -.00000170  00000+0 -67748-4 0  9995
2 43578  86.3922 307.9746 0002062  89.8421 270.3011 14.34214857327204
IRIDIUM 180             
1 43922U 19002A   24297.94063088  .00000243  00000+0  79883-4 0  9991
2 43922  86.3964 244.8055 0002203  85.6629 274.4819 14.34214654302812
IRIDIUM 176             
1 43923U 19002B   24297.84866843  .00003406  00000+0  53609-3 0  9992
2 43923  86.6091 244.8546 0002272  92.0139 268.1339 14.72250970310770
IRIDIUM 168             
1 43924U 19002C   24298.21336800  .00000126  00000+0  38103-4 0  9999
2 43924  86.3966 244.7520 0002179  84.0584 276.0860 14.34220045302834
IRIDIUM 173             
1 43925U 19002D   24298.13091166  .00000634  00000+0  21936-3 0  9993
2 43925  86.3960 244.6999 0002097  80.8958 279.2474 14.34220264302813
IRIDIUM 169             
1 43926U 19002E   24298.42949587  .00000465  00000+0  14564-3 0  9996
2 43926  86.4172 276.2159 0003209 121.1050 239.0463 14.38610312303855
IRIDIUM 172             
1 43927U 19002F   24298.40364240  .00000307  00000+0  10241-3 0  9995
2 43927  86.3962 244.5918 0002157  83.5431 276.6011 14.34212081302850
IRIDIUM 175             
1 43928U 19002G   24297.91117325  .00002504  00000+0  39332-3 0  9994
2 43928  86.1557 210.7389 0002970  90.0851 270.0706 14.72223494310779
